ORBCOMM FM06            
1 25118U 97084G   26200.87507845  .00000382  00000+0  14193-3 0  9992
2 25118  45.0131 255.3436 0001809 247.7543 282.2604 14.47632274499120
ORBCOMM FM04            
1 25159U 98007C   26200.79226434  .00000324  00000+0  15657-3 0  9998
2 25159 107.9632 236.5282 0042009 269.1410  90.4917 14.35788975481277
ORBCOMM FM19            
1 25415U 98046C   26200.76620174  .00000365  00000+0  16115-3 0  9997
2 25415  44.9938  88.6935 0003247  92.9241 313.8936 14.39546087461470
ORBCOMM FM20            
1 25416U 98046D   26200.73306469  .00000269  00000+0  13458-3 0  9993
2 25416  44.9940  97.1337 0001032  29.5391 330.5515 14.38104033461476
ORBCOMM FM27            
1 25481U 98053G   26200.25825416  .00000323  00000+0  14912-3 0  9995
2 25481  45.0035 183.0191 0002245 305.7723  54.2917 14.39188925454856
ORBCOMM FM32            
1 25982U 99065C   26200.47571946  .00000231  00000+0  12421-3 0  9996
2 25982  45.0160  20.3999 0006084 212.2873 147.7603 14.37171375391739
ORBCOMM FM109           
1 40086U 14040A   26200.56103735  .00000028  00000+0  42146-4 0  9997
2 40086  47.0031 298.4229 0001327 336.7063  23.3763 14.58873556639073
ORBCOMM FM110           
1 41182U 15081D   26200.70266329  .00000192  00000+0  76767-4 0  9994
2 41182  47.0003 207.6953 0003746 239.7457 120.3058 14.58921802562373
ORBCOMM FM118           
1 41183U 15081E   26200.39471527  .00000044  00000+0  45596-4 0  9990
2 41183  47.0023 209.4909 0003121 204.5784 155.4953 14.58905829562438
ORBCOMM FM112           
1 41184U 15081F   26200.80951826  .00000221  00000+0  82867-4 0  9991
2 41184  46.9987 115.9784 0003418 348.6172  11.4636 14.58942064563711
ORBCOMM FM113           
1 41185U 15081G   26200.78729631  .00000119  00000+0  61360-4 0  9997
2 41185  47.0005 116.4772 0001963 339.5545  20.5262 14.58884687563693
ORBCOMM FM108           
1 41187U 15081J   26200.54375057  .00000192  00000+0  76868-4 0  9992
2 41187  47.0057  29.2105 0002382 339.0565  21.0223 14.58913726564800
ORBCOMM FM117           
1 41188U 15081K   26200.85194760  .00000208  00000+0  80227-4 0  9999
2 41188  47.0020  26.3792 0002732 348.3012  11.7810 14.58901108564898
ORBCOMM FM116           
1 41189U 15081L   26200.83205624  .00000183  00000+0  74955-4 0  9993
2 41189  47.0019 116.2624 0001710 242.7588 117.3124 14.58909743563703
