OBJECT_NAME,OBJECT_ID,EPOCH,MEAN_MOTION,ECCENTRICITY,INCLINATION,RA_OF_ASC_NODE,ARG_OF_PERICENTER,MEAN_ANOMALY,EPHEMERIS_TYPE,CLASSIFICATION_TYPE,NORAD_CAT_ID,ELEMENT_SET_NO,REV_AT_EPOCH,BSTAR,MEAN_MOTION_DOT,MEAN_MOTION_DDOT
ORBCOMM FM06,1997-084G,2026-07-19T21:00:06.778080,14.47632274,.0001809,45.0131,255.3436,247.7543,282.2604,0,U,25118,999,49912,.14193E-3,.382E-5,0
ORBCOMM FM04,1998-007C,2026-07-19T19:00:51.638976,14.35788975,.0042009,107.9632,236.5282,269.1410,90.4917,0,U,25159,999,48127,.15657E-3,.324E-5,0
ORBCOMM FM19,1998-046C,2026-07-19T18:23:19.830336,14.39546087,.0003247,44.9938,88.6935,92.9241,313.8936,0,U,25415,999,46147,.16115E-3,.365E-5,0
ORBCOMM FM20,1998-046D,2026-07-19T17:35:36.789216,14.38104033,.0001032,44.9940,97.1337,29.5391,330.5515,0,U,25416,999,46147,.13458E-3,.269E-5,0
ORBCOMM FM27,1998-053G,2026-07-19T06:11:53.159424,14.39188925,.00022459,45.0035,183.0191,305.7723,54.2917,0,U,25481,999,45485,.14911908E-3,.323E-5,0
ORBCOMM FM32,1999-065C,2026-07-19T11:25:02.161344,14.37171375,.00060849,45.0160,20.3999,212.2873,147.7603,0,U,25982,999,39173,.12421316E-3,.231E-5,0
ORBCOMM FM109,2014-040A,2026-07-19T13:27:53.627040,14.58873556,.0001327,47.0031,298.4229,336.7063,23.3763,0,U,40086,999,63907,.42146E-4,.28E-6,0
ORBCOMM FM110,2015-081D,2026-07-19T16:51:50.108256,14.58921802,.0003746,47.0003,207.6953,239.7457,120.3058,0,U,41182,999,56237,.76767E-4,.192E-5,0
ORBCOMM FM118,2015-081E,2026-07-19T09:28:23.399328,14.58905829,.00031213,47.0023,209.4909,204.5784,155.4953,0,U,41183,999,56243,.45596435E-4,.44E-6,0
ORBCOMM FM112,2015-081F,2026-07-19T19:25:42.377664,14.58942064,.0003418,46.9987,115.9784,348.6172,11.4636,0,U,41184,999,56371,.82867E-4,.221E-5,0
ORBCOMM FM113,2015-081G,2026-07-19T18:53:42.401184,14.58884687,.0001963,47.0005,116.4772,339.5545,20.5262,0,U,41185,999,56369,.6136E-4,.119E-5,0
ORBCOMM FM108,2015-081J,2026-07-19T13:03:00.049248,14.58913726,.00023821,47.0057,29.2105,339.0565,21.0223,0,U,41187,999,56480,.76867783E-4,.192E-5,0
ORBCOMM FM117,2015-081K,2026-07-19T20:26:48.272640,14.58901108,.0002732,47.0020,26.3792,348.3012,11.7810,0,U,41188,999,56489,.80227E-4,.208E-5,0
ORBCOMM FM116,2015-081L,2026-07-19T19:58:09.659136,14.58909743,.000171,47.0019,116.2624,242.7588,117.3124,0,U,41189,999,56370,.74955E-4,.183E-5,0
